OBJECT_NAME,OBJECT_ID,EPOCH,MEAN_MOTION,ECCENTRICITY,INCLINATION,RA_OF_ASC_NODE,ARG_OF_PERICENTER,MEAN_ANOMALY,EPHEMERIS_TYPE,CLASSIFICATION_TYPE,NORAD_CAT_ID,ELEMENT_SET_NO,REV_AT_EPOCH,BSTAR,MEAN_MOTION_DOT,MEAN_MOTION_DDOT
STARLINK-5325,2023-010Z,2024-08-22T17:23:32.791776,14.98331808,.0003049,70.0019,6.3710,270.4096,89.6713,0,U,55292,999,8848,.13433E-3,.151E-4,0
STARLINK-5287,2023-010AA,2024-08-22T17:29:32.539776,14.98343869,.0003153,70.0016,6.3869,269.5607,90.5191,0,U,55293,999,8849,.70284E-4,.746E-5,0
STARLINK-5286,2023-010AB,2024-08-22T17:35:54.027744,14.98333860,.0003032,70.0011,26.2701,270.3044,89.7768,0,U,55294,999,8800,.28436E-3,.3302E-4,0
STARLINK-5293,2023-010AC,2024-08-22T18:35:59.496288,14.98346976,.0003098,70.0006,26.4181,277.0323,83.0483,0,U,55295,999,8800,.52221E-4,.53E-5,0
STARLINK-5285,2023-010AD,2024-08-22T18:41:38.243904,14.98349264,.0003131,70.0014,6.1586,265.7757,94.3045,0,U,55296,999,8849,-.12191E-3,-.1548E-4,0
STARLINK-5284,2023-010AE,2024-08-22T17:17:31.907616,14.98333821,.0003049,70.0016,6.3561,271.8563,88.2247,0,U,55297,999,8848,.18499E-4,.128E-5,0
STARLINK-5272,2023-010AF,2024-08-22T20:00:01.999872,15.36754079,.0003211,70.0030,4.6939,277.2349,140.4321,0,U,55298,999,8853,.35069E-1,.1390726E-1,0
STARLINK-5270,2023-010AG,2024-08-22T18:35:37.774464,14.98337569,.000315,70.0013,6.1472,272.8588,87.2210,0,U,55299,999,8849,.13796E-4,.72E-6,0
STARLINK-5308,2023-010AH,2024-08-22T18:29:37.303296,14.98335605,.0002971,70.0015,6.1311,268.1140,91.9679,0,U,55300,999,8849,-.17218E-4,-.298E-5,0
STARLINK-5321,2023-010AK,2024-08-22T17:11:30.963840,14.98338615,.0003373,70.0014,6.3392,271.7141,88.3631,0,U,55302,999,8848,.72628E-4,.774E-5,0
STARLINK-5322,2023-010AL,2024-08-22T17:17:51.167040,14.98337498,.0002996,70.0009,26.2263,266.6322,93.4494,0,U,55303,999,8800,.89115E-4,.971E-5,0
STARLINK-5318,2023-010AM,2024-08-22T18:23:36.637728,14.98337936,.0002936,70.0015,6.1155,266.3007,93.7817,0,U,55304,999,8849,.8614E-4,.935E-5,0
STARLINK-5316,2023-010AN,2024-08-22T18:17:38.520960,14.98333905,.0002996,70.0020,6.5067,267.4979,92.5837,0,U,55305,999,8848,.76277E-4,.817E-5,0
STARLINK-5295,2023-010AP,2024-08-22T17:35:14.377920,14.98339692,.0002997,70.0012,346.5272,268.1698,91.9118,0,U,55306,999,8897,.7789E-4,.837E-5,0
STARLINK-5288,2023-010AQ,2024-08-22T17:41:14.487072,14.98348750,.0003076,70.0014,346.5421,274.8986,85.1822,0,U,55307,999,8897,.16039E-3,.1822E-4,0
STARLINK-5292,2023-010AR,2024-08-22T17:11:26.109888,14.98340322,.0002943,70.0005,346.4698,269.6739,90.4083,0,U,55308,999,8897,.76371E-4,.819E-5,0
STARLINK-5315,2023-010AS,2024-08-22T17:35:30.854400,14.98318195,.000314,70.0012,346.5281,264.2276,95.8525,0,U,55309,999,8897,-.14444E-3,-.1815E-4,0
STARLINK-5309,2023-010AT,2024-08-22T17:23:12.529248,14.98346961,.0003137,70.0005,346.4980,272.4996,87.5804,0,U,55310,999,8897,.14734E-3,.1666E-4,0
STARLINK-5312,2023-010AU,2024-08-22T17:29:13.828128,14.98339392,.0002965,70.0015,346.5148,264.0423,96.0398,0,U,55311,999,8897,.26792E-3,.3106E-4,0
STARLINK-5296,2023-010AV,2024-08-22T18:23:16.864224,14.98344750,.0003004,70.0029,346.1293,264.8402,95.2414,0,U,55312,999,8898,.56577E-3,.6667E-4,0
STARLINK-5313,2023-010AW,2024-08-22T17:11:11.847840,14.98339998,.0003016,70.0005,346.4686,268.2366,91.8448,0,U,55313,999,8897,.12537E-3,.1404E-4,0
STARLINK-5305,2023-010AX,2024-08-22T17:17:12.168672,14.98347820,.0003097,70.0002,346.4820,272.6941,87.3863,0,U,55314,999,8897,-.18436E-3,-.2293E-4,0
STARLINK-4623,2023-010AY,2024-08-22T17:35:33.823104,14.98333638,.0002961,70.0020,6.4020,265.7299,94.3522,0,U,55315,999,8849,.13271E-4,.65E-6,0
STARLINK-5257,2023-010AZ,2024-08-22T16:35:07.992672,14.98345057,.0002962,70.0039,346.3953,264.5675,95.5146,0,U,55316,999,8898,.4167E-3,.4884E-4,0
STARLINK-5265,2023-010BA,2024-08-22T17:05:11.139072,14.98343218,.0003053,70.0006,346.4814,268.6661,91.4149,0,U,55317,999,8898,.15253E-3,.1728E-4,0
STARLINK-5180,2023-010BB,2024-08-22T16:59:10.106304,14.98369302,.0003012,70.0033,346.4398,264.2046,95.8769,0,U,55318,999,8897,.18125E-2,.21622E-3,0
STARLINK-5196,2023-010BC,2024-08-22T16:53:10.068864,14.98342939,.0003179,70.0030,346.4246,269.8533,90.2262,0,U,55319,999,8897,.40576E-3,.4753E-4,0
HAWK-6B,2023-011A,2024-08-22T17:26:25.704096,15.12392597,.0005146,40.5158,234.0535,257.6053,102.4177,0,U,55324,999,8697,.55908E-3,.973E-4,0
HAWK-6C,2023-011C,2024-08-22T09:30:22.012704,15.12394902,.0005867,40.4842,234.3400,255.3287,104.6868,0,U,55326,999,8693,.56851E-3,.9899E-4,0
HAWK-6A,2023-011D,2024-08-22T17:25:43.637664,15.12397268,.0006008,40.5004,233.2783,249.8467,110.1693,0,U,55327,999,8698,.57933E-3,.10092E-3,0
