55292,STARLINK-5325,2023,96.11,290.0,+,70.0,Active,1,LEO,USA,USA,Commercial,Communications,Falcon,1 55292U 23010Z   24235.72468509  .00001510  00000+0  13433-3 0  9999,2 55292  70.0019   6.3710 0003049 270.4096  89.6713 14.98331808 88480,14.98331808,0.0003049,LEO
55293,STARLINK-5287,2023,96.11,290.0,+,70.0,Active,1,LEO,USA,USA,Commercial,Communications,Falcon,1 55293U 23010AA  24235.72884884  .00000746  00000+0  70284-4 0  9996,2 55293  70.0016   6.3869 0003153 269.5607  90.5191 14.98343869 88498,14.98343869,0.0003153,LEO
55294,STARLINK-5286,2023,96.11,290.0,+,70.0,Active,1,LEO,USA,USA,Commercial,Communications,Falcon,1 55294U 23010AB  24235.73326421  .00003302  00000+0  28436-3 0  9998,2 55294  70.0011  26.2701 0003032 270.3044  89.7768 14.98333860 88008,14.9833386,0.0003032,LEO
55295,STARLINK-5293,2023,96.11,290.0,+,70.0,Active,1,LEO,USA,USA,Commercial,Communications,Falcon,1 55295U 23010AC  24235.77499417  .00000530  00000+0  52221-4 0  9999,2 55295  70.0006  26.4181 0003098 277.0323  83.0483 14.98346976 88006,14.98346976,0.0003098,LEO
55296,STARLINK-5285,2023,96.11,290.0,+,70.0,Active,1,LEO,USA,USA,Commercial,Communications,Falcon,1 55296U 23010AD  24235.77891486 -.00001548  00000+0 -12191-3 0  9995,2 55296  70.0014   6.1586 0003131 265.7757  94.3045 14.98349264 88498,14.98349264,0.0003131,LEO
55297,STARLINK-5284,2023,96.11,290.0,+,70.0,Active,1,LEO,USA,USA,Commercial,Communications,Falcon,1 55297U 23010AE  24235.72050819  .00000128  00000+0  18499-4 0  9997,2 55297  70.0016   6.3561 0003049 271.8563  88.2247 14.98333821 88484,14.98333821,0.0003049,LEO
55298,STARLINK-5272,2023,93.75,290.0,P,70.0,Active,1,LEO,USA,USA,Commercial,Communications,Falcon,1 55298U 23010AF  24235.83335648  .01390726  00000+0  35069-1 0  9992,2 55298  70.0030   4.6939 0003211 277.2349 140.4321 15.36754079 88539,15.36754079,0.0003211,LEO
55299,STARLINK-5270,2023,96.11,290.0,+,70.0,Active,1,LEO,USA,USA,Commercial,Communications,Falcon,1 55299U 23010AG  24235.77474276  .00000072  00000+0  13796-4 0  9994,2 55299  70.0013   6.1472 0003150 272.8588  87.2210 14.98337569 88496,14.98337569,0.000315,LEO
55300,STARLINK-5308,2023,96.11,290.0,+,70.0,Active,1,LEO,USA,USA,Commercial,Communications,Falcon,1 55300U 23010AH  24235.77057064 -.00000298  00000+0 -17218-4 0  9994,2 55300  70.0015   6.1311 0002971 268.1140  91.9679 14.98335605 88495,14.98335605,0.0002971,LEO
55302,STARLINK-5321,2023,96.11,290.0,+,70.0,Active,1,LEO,USA,USA,Commercial,Communications,Falcon,1 55302U 23010AK  24235.71633060  .00000774  00000+0  72628-4 0  9999,2 55302  70.0014   6.3392 0003373 271.7141  88.3631 14.98338615 88486,14.98338615,0.0003373,LEO
55303,STARLINK-5322,2023,96.11,290.0,+,70.0,Active,1,LEO,USA,USA,Commercial,Communications,Falcon,1 55303U 23010AL  24235.72073110  .00000971  00000+0  89115-4 0  9993,2 55303  70.0009  26.2263 0002996 266.6322  93.4494 14.98337498 88003,14.98337498,0.0002996,LEO
55304,STARLINK-5318,2023,96.11,290.0,+,70.0,Active,1,LEO,USA,USA,Commercial,Communications,Falcon,1 55304U 23010AM  24235.76639627  .00000935  00000+0  86140-4 0  9994,2 55304  70.0015   6.1155 0002936 266.3007  93.7817 14.98337936 88491,14.98337936,0.0002936,LEO
55305,STARLINK-5316,2023,96.11,290.0,+,70.0,Active,1,LEO,USA,USA,Commercial,Communications,Falcon,1 55305U 23010AN  24235.76225140  .00000817  00000+0  76277-4 0  9995,2 55305  70.0020   6.5067 0002996 267.4979  92.5837 14.98333905 88480,14.98333905,0.0002996,LEO
55306,STARLINK-5295,2023,96.11,290.0,+,70.0,Active,1,LEO,USA,USA,Commercial,Communications,Falcon,1 55306U 23010AP  24235.73280530  .00000837  00000+0  77890-4 0  9991,2 55306  70.0012 346.5272 0002997 268.1698  91.9118 14.98339692 88972,14.98339692,0.0002997,LEO
55307,STARLINK-5288,2023,96.1,290.0,+,70.0,Active,1,LEO,USA,USA,Commercial,Communications,Falcon,1 55307U 23010AQ  24235.73697323  .00001822  00000+0  16039-3 0  9996,2 55307  70.0014 346.5421 0003076 274.8986  85.1822 14.98348750 88976,14.9834875,0.0003076,LEO
55308,STARLINK-5292,2023,96.11,290.0,+,70.0,Active,1,LEO,USA,USA,Commercial,Communications,Falcon,1 55308U 23010AR  24235.71627442  .00000819  00000+0  76371-4 0  9991,2 55308  70.0005 346.4698 0002943 269.6739  90.4083 14.98340322 88977,14.98340322,0.0002943,LEO
55309,STARLINK-5315,2023,96.11,290.0,+,70.0,Active,1,LEO,USA,USA,Commercial,Communications,Falcon,1 55309U 23010AS  24235.73299600 -.00001815  00000+0 -14444-3 0  9996,2 55309  70.0012 346.5281 0003140 264.2276  95.8525 14.98318195 88975,14.98318195,0.000314,LEO
55310,STARLINK-5309,2023,96.11,290.0,+,70.0,Active,1,LEO,USA,USA,Commercial,Communications,Falcon,1 55310U 23010AT  24235.72445057  .00001666  00000+0  14734-3 0  9990,2 55310  70.0005 346.4980 0003137 272.4996  87.5804 14.98346961 88970,14.98346961,0.0003137,LEO
55311,STARLINK-5312,2023,96.11,290.0,+,70.0,Active,1,LEO,USA,USA,Commercial,Communications,Falcon,1 55311U 23010AU  24235.72863227  .00003106  00000+0  26792-3 0  9992,2 55311  70.0015 346.5148 0002965 264.0423  96.0398 14.98339392 88972,14.98339392,0.0002965,LEO
55312,STARLINK-5296,2023,96.11,290.0,+,70.0,Active,1,LEO,USA,USA,Commercial,Communications,Falcon,1 55312U 23010AV  24235.76616741  .00006667  00000+0  56577-3 0  9993,2 55312  70.0029 346.1293 0003004 264.8402  95.2414 14.98344750 88980,14.9834475,0.0003004,LEO
55313,STARLINK-5313,2023,96.11,290.0,+,70.0,Active,1,LEO,USA,USA,Commercial,Communications,Falcon,1 55313U 23010AW  24235.71610935  .00001404  00000+0  12537-3 0  9990,2 55313  70.0005 346.4686 0003016 268.2366  91.8448 14.98339998 88970,14.98339998,0.0003016,LEO
55314,STARLINK-5305,2023,96.11,290.0,+,70.0,Active,1,LEO,USA,USA,Commercial,Communications,Falcon,1 55314U 23010AX  24235.72027973 -.00002293  00000+0 -18436-3 0  9999,2 55314  70.0002 346.4820 0003097 272.6941  87.3863 14.98347820 88979,14.9834782,0.0003097,LEO
55315,STARLINK-4623,2023,96.11,290.0,+,70.0,Active,1,LEO,USA,USA,Commercial,Communications,Falcon,1 55315U 23010AY  24235.73303036  .00000065  00000+0  13271-4 0  9994,2 55315  70.0020   6.4020 0002961 265.7299  94.3522 14.98333638 88492,14.98333638,0.0002961,LEO
55316,STARLINK-5257,2023,96.11,290.0,+,70.0,Active,1,LEO,USA,USA,Commercial,Communications,Falcon,1 55316U 23010AZ  24235.69106473  .00004884  00000+0  41670-3 0  9992,2 55316  70.0039 346.3953 0002962 264.5675  95.5146 14.98345057 88987,14.98345057,0.0002962,LEO
55317,STARLINK-5265,2023,96.11,290.0,+,70.0,Active,1,LEO,USA,USA,Commercial,Communications,Falcon,1 55317U 23010BA  24235.71193448  .00001728  00000+0  15253-3 0  9996,2 55317  70.0006 346.4814 0003053 268.6661  91.4149 14.98343218 88986,14.98343218,0.0003053,LEO
55318,STARLINK-5180,2023,96.11,290.0,+,70.0,Active,1,LEO,USA,USA,Commercial,Communications,Falcon,1 55318U 23010BB  24235.70775586  .00021622  00000+0  18125-2 0  9990,2 55318  70.0033 346.4398 0003012 264.2046  95.8769 14.98369302 88975,14.98369302,0.0003012,LEO
55319,STARLINK-5196,2023,96.11,290.0,+,70.0,Active,1,LEO,USA,USA,Commercial,Communications,Falcon,1 55319U 23010BC  24235.70358876  .00004753  00000+0  40576-3 0  9992,2 55319  70.0030 346.4246 0003179 269.8533  90.2262 14.98342939 88975,14.98342939,0.0003179,LEO
55324,HAWK-6B,2023,95.21,31.0,+,40.52,Active,1,LEO,USA,USA,Commercial,Surveillance,Electron,1 55324U 23011A   24235.72668639  .00009730  00000+0  55908-3 0  9997,2 55324  40.5158 234.0535 0005146 257.6053 102.4177 15.12392597 86976,15.12392597,0.0005146,LEO
55326,HAWK-6C,2023,95.21,31.0,+,40.48,Active,1,LEO,USA,USA,Commercial,Surveillance,Electron,1 55326U 23011C   24235.39608811  .00009899  00000+0  56851-3 0  9992,2 55326  40.4842 234.3400 0005867 255.3287 104.6868 15.12394902 86934,15.12394902,0.0005867,LEO
55327,HAWK-6A,2023,95.21,31.0,+,40.5,Active,1,LEO,USA,USA,Commercial,Surveillance,Electron,1 55327U 23011D   24235.72619951  .00010092  00000+0  57933-3 0  9996,2 55327  40.5004 233.2783 0006008 249.8467 110.1693 15.12397268 86985,15.12397268,0.0006008,LEO
